STARLINK-6043           
1 56464U 23064S   26068.59330289 -.00000682  00000+0 -49377-4 0  9992
2 56464  70.0007 144.6208 0003210 270.9566  89.1225 14.98324758155231
ICEYE-X48               
1 63253U 25052AV  26068.70765702  .00004541  00000+0  39589-3 0  9999
2 63253  97.6979 322.3976 0002688 141.7433 218.3980 14.97356709 53782
